HAWK-5A                 
1 52757U 22057AB  26155.98048796  .00022234  00000+0  38478-3 0  9997
2 52757  97.6595 314.0463 0006089 115.5165 244.6716 15.50936927224451
HAWK-6B                 
1 55324U 23011A   26156.05106212  .00005326  00000+0  23101-3 0  9998
2 55324  40.4987  62.8526 0004333 296.9560  63.0806 15.22819239185999
HAWK-6C                 
1 55326U 23011C   26154.93554618  .00004636  00000+0  20221-3 0  9995
2 55326  40.4982  66.1967 0004827 281.1122  78.9144 15.22812682185838
HAWK-6A                 
1 55327U 23011D   26156.05045137  .00005497  00000+0  23814-3 0  9999
2 55327  40.4988  61.3185 0004420 286.1808  73.8514 15.22820528186002
HAWK-7A                 
1 56191U 23054P   26154.74475124  .00001898  00000+0  73869-4 0  9990
2 56191  97.2671  42.4316 0004029  97.2300 262.9398 15.27201148174970
HAWK-7B                 
1 56193U 23054R   26155.98957314  .00006717  00000+0  25433-3 0  9993
2 56193  97.2736  41.8967 0004027  92.4589 267.7111 15.27230971175167
HAWK-7C                 
1 56200U 23054Y   26155.98945497  .00006518  00000+0  24691-3 0  9995
2 56200  97.2714  42.6690 0004142  84.9827 275.1885 15.27228175175167
